# From NK 1615
P/1996 R2 (Lagerkvist),e,2.5993,40.0533,333.4640,3.773254,0.1344714,0.31441703,281.3960,11/08.0/2024,2000,g 11.5,4.0
# From MPC 75703
P/1998 VS24 (LINEAR),e,5.0286,159.0520,244.8198,4.521596,0.1025100,0.24367731,254.0659,11/08.0/2024,2000,g 13.0,2.0
# From unp
P/1999 D1 (Hermann),e,21.2541,348.7582,173.8336,5.786430,0.0708089,0.71321743,310.3435,11/08.0/2024,2000,g  9.0,4.0
# From unp
P/1999 R1 (SOHO),e,11.4270,351.5969,56.8665,2.508455,0.2480816,0.97997684,0.0000,08/21.0444/2023,2000,g  9.0,4.0
# From NK 731
P/1999 RO28 (LONEOS),e,7.5667,137.8506,231.3462,3.425585,0.1554540,0.67227615,304.6161,11/08.0/2024,2000,g 20.0,2.0
# From MPC 75704
P/1999 XN120 (Catalina),e,5.0295,285.2508,161.6576,4.180334,0.1153155,0.21111693,312.8257,11/08.0/2024,2000,g 13.5,2.0
# From unp
P/2000 QJ46 (LINEAR),e,4.4326,158.0963,222.2810,5.790681,0.0707310,0.67543269,254.6977,11/08.0/2024,2000,g  9.0,4.0
# From NK 744
P/2000 R2 (LINEAR),e,11.6795,160.2803,176.5883,3.468691,0.1525652,0.53072083,300.6085,11/08.0/2024,2000,g 18.0,4.0
# From unp
P/2001 BB50 (LINEAR-NEAT),e,10.3269,351.1488,193.3378,5.752825,0.0714303,0.58607137,267.6290,11/08.0/2024,2000,g 13.0,4.0
# From MPC 43019
P/2001 H5 (NEAT),e,8.3706,328.6582,224.6104,6.095284,0.0654958,0.59874206,217.4757,11/08.0/2024,2000,g 12.0,4.0
# From MPEC 2023-UR6
P/2002 EJ57 (LINEAR),e,4.9863,330.2417,167.2616,6.456328,0.0600794,0.59357835,140.2184,11/08.0/2024,2000,g 12.5,4.0
# From MPC 75007
C/2002 VQ94 (LINEAR),e,70.6895,35.1375,99.8133,185.9143,0.0003888,0.96362704,2.6623,11/08.0/2024,2000,g  9.5,2.0
# From MPC 50354
P/2003 F2 (NEAT),e,11.6699,358.9002,192.5741,6.514981,0.0592699,0.54137985,107.8832,11/08.0/2024,2000,g 16.5,2.0
# From MPC 50139
P/2003 QX29 (NEAT),e,11.3994,264.5333,37.6646,8.002378,0.0435387,0.47153088,348.1526,11/08.0/2024,2000,g  8.5,4.0
# From MPC105235
P/2003 T12 (SOHO),e,11.0251,174.5772,219.7851,2.584023,0.2372792,0.77025451,30.1925,11/08.0/2024,2000,g 17.0,4.0
# From unp
P/2003 U3 (NEAT),e,7.0160,347.9270,357.0417,5.042318,0.0870480,0.51056860,318.8569,11/08.0/2024,2000,g 12.0,4.0
# From MPEC 2022-YN2
P/2004 FY140 (LINEAR),e,2.1624,327.2638,254.1548,4.969750,0.0889615,0.19245592,285.6541,11/08.0/2024,2000,g 12.5,2.0
# From unp
P/2004 H2 (Larsen),e,11.7750,131.3751,104.6863,4.526554,0.1023417,0.41682918,47.1106,11/08.0/2024,2000,g  9.0,4.0
# From MPC 53304
P/2004 R3 (LINEAR-NEAT),e,12.7967,305.1206,37.3907,4.750721,0.0951842,0.25436942,109.2850,11/08.0/2024,2000,g 14.5,4.0
# From MPC 75705
P/2004 V5 (LINEAR-Hill),e,19.3438,47.7415,87.2713,8.029374,0.0433193,0.44782102,316.5807,11/08.0/2024,2000,g  8.0,4.0
# From MPC 75705
P/2004 V5-B (LINEAR-Hill),e,19.3439,47.7419,87.2750,8.029705,0.0433166,0.44784186,316.5414,11/08.0/2024,2000,g  8.0,4.0
# From MPC 54164
P/2005 E1 (Tubbiolo),e,4.2610,335.5119,193.8839,7.065740,0.0524768,0.37691341,21.3666,11/08.0/2024,2000,g 10.0,4.0
# From unp
P/2005 GF8 (LONEOS),e,1.1658,312.8356,285.3967,5.756947,0.0713536,0.51381652,134.1824,11/08.0/2024,2000,g  9.0,4.0
# From MPC 79019
P/2005 J1 (McNaught),e,31.7407,268.8002,338.9190,3.573910,0.1458776,0.56922403,324.1549,11/08.0/2024,2000,g 16.5,4.0
# From MPC 74246
P/2005 L1 (McNaught),e,7.9138,131.9100,156.0454,3.977136,0.1242649,0.23545469,133.8046,11/08.0/2024,2000,g  9.5,4.0
# From MPC 75706
P/2005 S2 (Skiff),e,3.1377,161.3443,229.8835,7.988454,0.0436526,0.19875237,292.8559,11/08.0/2024,2000,g  7.5,4.0
# From MPC 73461
P/2005 T3 (Read),e,6.2299,27.6336,6.9574,7.580934,0.0472194,0.17500284,329.4078,11/08.0/2024,2000,g  9.0,4.0
# From MPC 73461
P/2005 T4 (SWAN),e,160.2713,25.8963,41.8496,9.352778,0.0344582,0.93042788,239.7771,11/08.0/2024,2000,g 15.0,4.0
# From MPC 75706
P/2005 T5 (Broughton),e,21.3832,57.0667,304.7623,7.263276,0.0503507,0.55204462,348.9799,11/08.0/2024,2000,g 11.0,4.0
# From MPEC 2024-DD5
P/2005 XR132 (Spacewatch),e,14.4752,265.3949,240.7681,3.757835,0.1352999,0.43263428,195.0863,11/08.0/2024,2000,g 16.0,4.0
# From unp
P/2005 Y2 (McNaught),e,19.1543,93.7990,193.3592,6.289546,0.0624849,0.46430020,93.1692,11/08.0/2024,2000,g  9.0,4.0
# From MPEC 2024-JU4
P/2006 AH2 (Sheppard-Tholen),e,10.0161,261.6452,196.0430,6.848132,0.0549979,0.41712973,24.2598,11/08.0/2024,2000,g 13.0,4.0
# From unp
P/2006 F4 (Spacewatch),e,12.4282,183.5413,31.4119,3.487257,0.1513485,0.35014683,288.3647,11/08.0/2024,2000,g  9.0,4.0
# From MPC 75707
P/2006 HR30 (Siding Spring),e,31.9408,309.7813,117.4804,7.799906,0.0452449,0.84366264,295.2541,11/08.0/2024,2000,g 11.0,4.0
# From unp
P/2006 XG16 (Spacewatch),e,9.0627,78.4046,40.9165,3.638341,0.1420199,0.41931405,201.5195,11/08.0/2024,2000,g  9.0,4.0
# From MPC 75707
P/2007 C2 (Catalina),e,8.6124,275.2406,180.1466,7.015253,0.0530443,0.47363708,333.5560,11/08.0/2024,2000,g 10.0,4.0
# From MPC 84315
C/2007 D1 (LINEAR),e,41.5089,171.0999,339.7049,1178,0.0000244,0.99257676,0.0000,06/11.8966/2007,2000,g  3.5,4.0
# From MPEC 2024-GJ3
P/2007 K2 (Gibbs),e,7.6067,188.5265,347.1544,7.348131,0.0494810,0.68589135,319.9186,11/08.0/2024,2000,g 14.0,4.0
# From MPC 60925
P/2007 Q2 (Gilmore),e,10.1966,172.2135,162.8689,5.661233,0.0731708,0.66906575,105.5998,11/08.0/2024,2000,g 16.0,4.0
# From MPC 73462
P/2007 S1 (Zhao),e,5.9640,141.3311,245.2489,3.817773,0.1321262,0.33821358,100.8577,11/08.0/2024,2000,g 13.0,4.0
# From MPEC 2024-GJ3
C/2007 S2 (Lemmon),e,16.9080,296.1232,210.1555,12.49803,0.0223070,0.55637290,131.9121,11/08.0/2024,2000,g  6.5,4.0
# From MPC 61994
P/2007 T2 (Kowalski),e,9.7502,3.3878,359.6709,3.043654,0.1856142,0.78557619,66.1549,11/08.0/2024,2000,g 18.5,4.0
# From MPEC 2024-GJ3
C/2008 E1 (Catalina),e,34.8660,188.9673,270.2974,10.76475,0.0279060,0.55267973,165.3510,11/08.0/2024,2000,g  7.0,4.0
# From MPC 64114
P/2008 O3 (Boattini),e,32.3241,47.6083,341.1984,8.209028,0.0419051,0.69643210,251.0255,11/08.0/2024,2000,g 13.0,4.0
# From MPC 75710
P/2008 Y3 (McNaught),e,38.7788,262.8446,238.0760,8.040783,0.0432271,0.44768619,250.8868,11/08.0/2024,2000,g  8.5,4.0
# From MPC 75710
P/2009 B1 (Boattini),e,22.2582,297.1072,128.9741,6.729411,0.0564597,0.63605812,326.1613,11/08.0/2024,2000,g 13.0,4.0
# From MPC 66466
C/2009 G1 (STEREO),e,108.1347,120.8240,175.5325,462.7201,0.0000990,0.99753797,0.0000,04/17.9987/2009,2000,g  9.0,4.0
# From MPC 75710
P/2009 O3 (Hill),e,16.2630,183.7154,154.4535,7.769701,0.0455090,0.68654487,256.7305,11/08.0/2024,2000,g 12.5,4.0
# From MPC 68902
P/2009 Q5 (McNaught),e,40.9637,160.2349,209.1959,7.425303,0.0487116,0.60957846,269.1186,11/08.0/2024,2000,g 10.0,4.0
# From unp
P/2009 QG31 (La Sagra),e,5.0510,346.1159,5.6875,3.569997,0.1461175,0.39931781,83.1688,11/08.0/2024,2000,g 14.0,4.0
# From MPC112389
P/2009 T2 (La Sagra),e,27.6092,216.3417,215.9604,7.710172,0.0460371,0.76746331,249.2471,11/08.0/2024,2000,g 14.0,4.0
# From MPC105235
P/2009 WX51 (Catalina),e,9.5960,31.5305,118.2787,3.082528,0.1821141,0.73955253,264.7297,11/08.0/2024,2000,g 19.0,2.0
# From MPC 74247
P/2009 Y2 (Kowalski),e,29.9741,262.0867,172.2038,6.541757,0.0589064,0.63744454,315.6044,11/08.0/2024,2000,g 13.0,4.0
# From MPEC 2024-UQ8
P/2010 A3 (Hill),e,14.8153,63.5879,42.2595,6.101953,0.0653884,0.73435568,352.0028,11/08.0/2024,2000,g 14.0,4.0
# From MPC 75008
P/2010 C1 (Scotti),e,9.1159,141.6047,2.9806,7.124696,0.0518268,0.26322414,286.6398,11/08.0/2024,2000,g  9.5,4.0
# From MPC 75008
P/2010 D2 (WISE),e,57.1284,319.8738,119.9714,6.719803,0.0565808,0.45177919,304.9342,11/08.0/2024,2000,g 16.0,4.0
# From MPC 75009
P/2010 E2 (Jarnac),e,15.4121,177.8117,8.2287,8.637268,0.0388275,0.72035544,207.7466,11/08.0/2024,2000,g 14.0,4.0
# From MPC 72851
P/2010 H2 (Vales),e,14.2796,64.1869,128.0484,3.832776,0.1313512,0.19746023,344.0223,11/08.0/2024,2000,g  6.0,4.0
# From MPC 70361
P/2010 H3 (SOHO),e,23.1549,77.1926,26.0574,3.035720,0.1863423,0.98555519,0.0000,05/25.1877/2026,2000,g 20.0,2.0
# From MPEC 2024-GJ3
P/2010 H4 (Scotti),e,2.3178,44.7404,179.1201,6.614974,0.0579311,0.26672940,306.4049,11/08.0/2024,2000,g 10.5,4.0
# From MPC 74637
P/2010 H5 (Scotti),e,14.0554,24.5708,174.6300,7.174783,0.0512851,0.15418614,275.1280,11/08.0/2024,2000,g 13.0,2.0
# From MPC 98558
P/2010 J3 (McMillan),e,13.2308,106.5329,157.4537,8.987198,0.0365820,0.72421209,190.3015,11/08.0/2024,2000,g 11.0,4.0
# From MPC 84315
P/2010 JC81 (WISE),e,38.7963,30.8672,12.4847,8.102706,0.0427326,0.77826079,210.9613,11/08.0/2024,2000,g  9.0,4.0
# From MPEC 2024-H77
A/2010 LN135,e,64.5594,184.7977,181.5632,28838,0.0000002,0.99993955,0.0000,05/25.7281/2011,2000,g 14.0,2.0
# From MPC 74248
P/2010 T2 (PANSTARRS),e,7.8751,57.9200,350.7327,5.619811,0.0739812,0.32829159,18.7980,11/08.0/2024,2000,g 11.5,4.0
# From MPC 82316
P/2010 U1 (Boattini),e,8.2273,280.8069,86.4956,6.489358,0.0596213,0.24871177,320.0303,11/08.0/2024,2000,g  9.5,4.0
# From MPEC 2023-J95
C/2010 U3 (Boattini),e,55.5605,42.9893,88.0605,8478,0.0000013,0.99900471,0.0000,02/27.1830/2019,2000,g  1.0,4.0
# From MPC 79021
P/2010 UH55 (Spacewatch),e,8.0366,232.8596,225.2458,6.650547,0.0574669,0.56463827,285.1646,11/08.0/2024,2000,g 11.0,4.0
# From MPC 84021
P/2011 C2 (Gibbs),e,10.8917,11.9557,160.2762,7.411326,0.0488495,0.27050840,230.7299,11/08.0/2024,2000,g  9.0,4.0
# From MPEC 2013-Y32
P/2011 CR42 (Catalina),e,8.4591,58.7140,172.6512,3.511229,0.1498012,0.28005402,350.2522,11/08.0/2024,2000,g  9.0,4.0
# From MPC 79866
P/2011 FR143 (Lemmon),e,15.9650,190.8562,349.7053,6.877619,0.0546446,0.45213531,275.4364,11/08.0/2024,2000,g 14.0,2.0
# From MPC 82317
P/2011 JB15 (Spacewatch-Boattini),e,19.1279,153.5806,110.7978,7.378060,0.0491803,0.31461085,231.0160,11/08.0/2024,2000,g  9.0,4.0
# From MPC 87913
P/2011 N1 (ASH),e,35.7874,77.6297,330.4643,6.236258,0.0632875,0.54556259,287.3657,11/08.0/2024,2000,g 11.5,4.0
# From MPEC 2022-ED3
P/2011 P1 (McNaught),e,5.6540,4.2735,349.1997,7.459472,0.0483773,0.32677652,251.9295,11/08.0/2024,2000,g  9.0,4.0
# From MPEC 2022-HC2
P/2011 S1 (Gibbs),e,2.6890,218.8957,192.8324,8.591794,0.0391362,0.20145072,145.9459,11/08.0/2024,2000,g  8.0,4.0
# From MPEC 2024-UQ8
